CCSDS_OMM_VERS = 2.0
CREATION_DATE  = 
ORIGINATOR     = 

OBJECT_NAME    = ISS (ZARYA)
OBJECT_ID      = 1998-067A
CENTER_NAME    = EARTH
REF_FRAME      = TEME
TIME_SYSTEM    = UTC
MEAN_ELEMENT_THEORY = SGP/SGP4

EPOCH          = 2026-02-20T05:11:11.637888
MEAN_MOTION    = 15.48153499
ECCENTRICITY   = .00085755
INCLINATION    = 51.6324
RA_OF_ASC_NODE = 158.7245
ARG_OF_PERICENTER = 115.0388
MEAN_ANOMALY   = 245.1491

EPHEMERIS_TYPE = 0
CLASSIFICATION_TYPE = U
NORAD_CAT_ID   = 25544
ELEMENT_SET_NO = 999
REV_AT_EPOCH   = 55362
BSTAR          = .18283655E-3
MEAN_MOTION_DOT = .9352E-4
MEAN_MOTION_DDOT = 0

CCSDS_OMM_VERS = 2.0
CREATION_DATE  = 
ORIGINATOR     = 

OBJECT_NAME    = CSS (TIANHE)
OBJECT_ID      = 2021-035A
CENTER_NAME    = EARTH
REF_FRAME      = TEME
TIME_SYSTEM    = UTC
MEAN_ELEMENT_THEORY = SGP/SGP4

EPOCH          = 2026-02-20T04:15:13.237056
MEAN_MOTION    = 15.59912191
ECCENTRICITY   = .00046431
INCLINATION    = 41.4676
RA_OF_ASC_NODE = 314.6566
ARG_OF_PERICENTER = 152.1392
MEAN_ANOMALY   = 207.9696

EPHEMERIS_TYPE = 0
CLASSIFICATION_TYPE = U
NORAD_CAT_ID   = 48274
ELEMENT_SET_NO = 999
REV_AT_EPOCH   = 27487
BSTAR          = .25309532E-3
MEAN_MOTION_DOT = .20706E-3
MEAN_MOTION_DDOT = 0

CCSDS_OMM_VERS = 2.0
CREATION_DATE  = 
ORIGINATOR     = 

OBJECT_NAME    = ISS (NAUKA)
OBJECT_ID      = 2021-066A
CENTER_NAME    = EARTH
REF_FRAME      = TEME
TIME_SYSTEM    = UTC
MEAN_ELEMENT_THEORY = SGP/SGP4

EPOCH          = 2026-02-20T05:11:11.637888
MEAN_MOTION    = 15.48153499
ECCENTRICITY   = .00085755
INCLINATION    = 51.6324
RA_OF_ASC_NODE = 158.7245
ARG_OF_PERICENTER = 115.0388
MEAN_ANOMALY   = 245.1491

EPHEMERIS_TYPE = 0
CLASSIFICATION_TYPE = U
NORAD_CAT_ID   = 49044
ELEMENT_SET_NO = 999
REV_AT_EPOCH   = 23044
BSTAR          = .18283655E-3
MEAN_MOTION_DOT = .9352E-4
MEAN_MOTION_DDOT = 0

CCSDS_OMM_VERS = 2.0
CREATION_DATE  = 
ORIGINATOR     = 

OBJECT_NAME    = FREGAT DEB
OBJECT_ID      = 2011-037PF
CENTER_NAME    = EARTH
REF_FRAME      = TEME
TIME_SYSTEM    = UTC
MEAN_ELEMENT_THEORY = SGP/SGP4

EPOCH          = 2026-02-20T04:27:25.053696
MEAN_MOTION    = 12.39041689
ECCENTRICITY   = .09446358
INCLINATION    = 51.6524
RA_OF_ASC_NODE = 353.1956
ARG_OF_PERICENTER = 19.1782
MEAN_ANOMALY   = 344.2258

EPHEMERIS_TYPE = 0
CLASSIFICATION_TYPE = U
NORAD_CAT_ID   = 49271
ELEMENT_SET_NO = 999
REV_AT_EPOCH   = 21052
BSTAR          = .50375868E-1
MEAN_MOTION_DOT = .32423E-3
MEAN_MOTION_DDOT = 0

CCSDS_OMM_VERS = 2.0
CREATION_DATE  = 
ORIGINATOR     = 

OBJECT_NAME    = CSS (WENTIAN)
OBJECT_ID      = 2022-085A
CENTER_NAME    = EARTH
REF_FRAME      = TEME
TIME_SYSTEM    = UTC
MEAN_ELEMENT_THEORY = SGP/SGP4

EPOCH          = 2026-02-20T04:15:13.237056
MEAN_MOTION    = 15.59912191
ECCENTRICITY   = .00046431
INCLINATION    = 41.4676
RA_OF_ASC_NODE = 314.6566
ARG_OF_PERICENTER = 152.1392
MEAN_ANOMALY   = 207.9696

EPHEMERIS_TYPE = 0
CLASSIFICATION_TYPE = U
NORAD_CAT_ID   = 53239
ELEMENT_SET_NO = 999
REV_AT_EPOCH   = 17384
BSTAR          = .25309532E-3
MEAN_MOTION_DOT = .20706E-3
MEAN_MOTION_DDOT = 0

CCSDS_OMM_VERS = 2.0
CREATION_DATE  = 
ORIGINATOR     = 

OBJECT_NAME    = CSS (MENGTIAN)
OBJECT_ID      = 2022-143A
CENTER_NAME    = EARTH
REF_FRAME      = TEME
TIME_SYSTEM    = UTC
MEAN_ELEMENT_THEORY = SGP/SGP4

EPOCH          = 2026-02-20T04:15:13.237056
MEAN_MOTION    = 15.59912191
ECCENTRICITY   = .00046431
INCLINATION    = 41.4676
RA_OF_ASC_NODE = 314.6566
ARG_OF_PERICENTER = 152.1392
MEAN_ANOMALY   = 207.9696

EPHEMERIS_TYPE = 0
CLASSIFICATION_TYPE = U
NORAD_CAT_ID   = 54216
ELEMENT_SET_NO = 999
REV_AT_EPOCH   = 15864
BSTAR          = .25309532E-3
MEAN_MOTION_DOT = .20706E-3
MEAN_MOTION_DDOT = 0

CCSDS_OMM_VERS = 2.0
CREATION_DATE  = 
ORIGINATOR     = 

OBJECT_NAME    = PROGRESS-MS 31
OBJECT_ID      = 2025-146A
CENTER_NAME    = EARTH
REF_FRAME      = TEME
TIME_SYSTEM    = UTC
MEAN_ELEMENT_THEORY = SGP/SGP4

EPOCH          = 2026-02-20T05:11:11.637888
MEAN_MOTION    = 15.48153499
ECCENTRICITY   = .00085755
INCLINATION    = 51.6324
RA_OF_ASC_NODE = 158.7245
ARG_OF_PERICENTER = 115.0388
MEAN_ANOMALY   = 245.1491

EPHEMERIS_TYPE = 0
CLASSIFICATION_TYPE = U
NORAD_CAT_ID   = 64751
ELEMENT_SET_NO = 999
REV_AT_EPOCH   = 675
BSTAR          = .18283655E-3
MEAN_MOTION_DOT = .9352E-4
MEAN_MOTION_DDOT = 0

CCSDS_OMM_VERS = 2.0
CREATION_DATE  = 
ORIGINATOR     = 

OBJECT_NAME    = TIANZHOU-9
OBJECT_ID      = 2025-149A
CENTER_NAME    = EARTH
REF_FRAME      = TEME
TIME_SYSTEM    = UTC
MEAN_ELEMENT_THEORY = SGP/SGP4

EPOCH          = 2026-02-20T04:15:13.237056
MEAN_MOTION    = 15.59912191
ECCENTRICITY   = .00046431
INCLINATION    = 41.4676
RA_OF_ASC_NODE = 314.6566
ARG_OF_PERICENTER = 152.1392
MEAN_ANOMALY   = 207.9696

EPHEMERIS_TYPE = 0
CLASSIFICATION_TYPE = U
NORAD_CAT_ID   = 64786
ELEMENT_SET_NO = 999
REV_AT_EPOCH   = 25530
BSTAR          = .25309532E-3
MEAN_MOTION_DOT = .20706E-3
MEAN_MOTION_DDOT = 0

CCSDS_OMM_VERS = 2.0
CREATION_DATE  = 
ORIGINATOR     = 

OBJECT_NAME    = DRAGON CRS-33
OBJECT_ID      = 2025-186A
CENTER_NAME    = EARTH
REF_FRAME      = TEME
TIME_SYSTEM    = UTC
MEAN_ELEMENT_THEORY = SGP/SGP4

EPOCH          = 2026-02-20T05:11:11.637888
MEAN_MOTION    = 15.48153499
ECCENTRICITY   = .00085755
INCLINATION    = 51.6324
RA_OF_ASC_NODE = 158.7245
ARG_OF_PERICENTER = 115.0388
MEAN_ANOMALY   = 245.1491

EPHEMERIS_TYPE = 0
CLASSIFICATION_TYPE = U
NORAD_CAT_ID   = 65304
ELEMENT_SET_NO = 999
REV_AT_EPOCH   = 11
BSTAR          = .18283655E-3
MEAN_MOTION_DOT = .9352E-4
MEAN_MOTION_DDOT = 0

CCSDS_OMM_VERS = 2.0
CREATION_DATE  = 
ORIGINATOR     = 

OBJECT_NAME    = PROGRESS-MS 32
OBJECT_ID      = 2025-204A
CENTER_NAME    = EARTH
REF_FRAME      = TEME
TIME_SYSTEM    = UTC
MEAN_ELEMENT_THEORY = SGP/SGP4

EPOCH          = 2026-02-20T05:11:11.637888
MEAN_MOTION    = 15.48153499
ECCENTRICITY   = .00085755
INCLINATION    = 51.6324
RA_OF_ASC_NODE = 158.7245
ARG_OF_PERICENTER = 115.0388
MEAN_ANOMALY   = 245.1491

EPHEMERIS_TYPE = 0
CLASSIFICATION_TYPE = U
NORAD_CAT_ID   = 65586
ELEMENT_SET_NO = 999
REV_AT_EPOCH   = 27
BSTAR          = .18283655E-3
MEAN_MOTION_DOT = .9352E-4
MEAN_MOTION_DDOT = 0

CCSDS_OMM_VERS = 2.0
CREATION_DATE  = 
ORIGINATOR     = 

OBJECT_NAME    = CYGNUS NG-23
OBJECT_ID      = 2025-208A
CENTER_NAME    = EARTH
REF_FRAME      = TEME
TIME_SYSTEM    = UTC
MEAN_ELEMENT_THEORY = SGP/SGP4

EPOCH          = 2026-02-20T05:11:11.637888
MEAN_MOTION    = 15.48153499
ECCENTRICITY   = .00085755
INCLINATION    = 51.6324
RA_OF_ASC_NODE = 158.7245
ARG_OF_PERICENTER = 115.0388
MEAN_ANOMALY   = 245.1491

EPHEMERIS_TYPE = 0
CLASSIFICATION_TYPE = U
NORAD_CAT_ID   = 65616
ELEMENT_SET_NO = 999
REV_AT_EPOCH   = 22
BSTAR          = .18283655E-3
MEAN_MOTION_DOT = .9352E-4
MEAN_MOTION_DDOT = 0

CCSDS_OMM_VERS = 2.0
CREATION_DATE  = 
ORIGINATOR     = 

OBJECT_NAME    = ISS OBJECT XK
OBJECT_ID      = 1998-067XK
CENTER_NAME    = EARTH
REF_FRAME      = TEME
TIME_SYSTEM    = UTC
MEAN_ELEMENT_THEORY = SGP/SGP4

EPOCH          = 2026-02-20T05:41:28.129632
MEAN_MOTION    = 15.91996168
ECCENTRICITY   = .00069202
INCLINATION    = 51.6215
RA_OF_ASC_NODE = 139.2748
ARG_OF_PERICENTER = 355.7327
MEAN_ANOMALY   = 4.3620

EPHEMERIS_TYPE = 0
CLASSIFICATION_TYPE = U
NORAD_CAT_ID   = 65731
ELEMENT_SET_NO = 999
REV_AT_EPOCH   = 2410
BSTAR          = .99070357E-3
MEAN_MOTION_DOT = .33468E-2
MEAN_MOTION_DDOT = .53498235E-4

